IRIDIUM 57              
1 25273U 98019B   24163.91745486  .00000727  00000+0  24741-3 0  9992
2 25273  86.3946 300.3289 0002111  92.7507 267.3931 14.35244374371871
IRIDIUM 63              
1 25286U 98021B   24164.15220696  .00000634  00000+0  21242-3 0  9997
2 25286  86.4000 237.1242 0002345  90.5370 269.6096 14.35796452371007
IRIDIUM 69              
1 25319U 98026A   24164.23553827  .00000869  00000+0  26952-3 0  9996
2 25319  86.3984 251.4917 0003777 129.7084 230.4449 14.40034040370044
IRIDIUM 71              
1 25320U 98026B   24164.16716188  .00000827  00000+0  25457-3 0  9994
2 25320  86.3987 246.2819 0001757 157.7656 202.3619 14.40346996370564
IRIDIUM 73              
1 25344U 98032C   24164.19654404  .00000871  00000+0  21710-3 0  9999
2 25344  86.4448 203.7250 0002612 105.0618 255.0876 14.50572925377207
IRIDIUM 82              
1 25467U 98051A   24163.84095239  .00018587  00000+0  94199-3 0  9996
2 25467  86.3743 288.3081 0125894 239.9628 118.9073 15.10090090367689
